HST                     
1 20580U 90037B   26189.39535415  .00004439  00000+0  13647-3 0  9998
2 20580  28.4736 295.6011 0001970  38.7878 321.2860 15.31009933791822
POLAR                   
1 23802U 96013A   26188.83341926  .00000206  00000+0  00000+0 0  9991
2 23802  79.8803 226.8071 6491222 208.3689  91.2224  1.29846096145128
SWAS                    
1 25560U 98071A   26189.35087437  .00001620  00000+0  10673-3 0  9994
2 25560  69.8940 172.9364 0008160 237.8075 122.2299 15.09721473500466
CXO                     
1 25867U 99040B   26190.53346781  .00000720  00000+0  00000+0 0  9992
2 25867  56.4882 116.0417 7806470 310.0470   0.4589  0.37804829 17409
XMM-NEWTON              
1 25989U 99066A   26191.28725898  .00000104  00000+0  00000+0 0  9994
2 25989  64.3678 282.6911 4669316  64.5120   0.0817  0.50123471 23117
TERRA                   
1 25994U 99068A   26189.53519162  .00000286  00000+0  67178-4 0  9997
2 25994  97.9444 238.2338 0003108 135.9682   0.4383 14.61120262412722
CLUSTER II-FM7 (SAMBA)  
1 26410U 00041A   26190.44939577  .00010356  00000+0  00000+0 0  9997
2 26410 149.8605  54.9301 9081562 272.3489 359.6364  0.44874124 20413
CLUSTER II-FM8 (TANGO)  
1 26464U 00045B   26188.69917747  .00008173  00000+0  00000+0 0  9993
2 26464 150.0796  55.7437 9084651 272.9971   2.3486  0.44419860 20408
ODIN                    
1 26702U 01007A   26187.98430022  .00262243  00000+0  10929-2 0  9998
2 26702  97.3761 230.3091 0005298 141.5779 218.5869 15.85006600392529
TIMED                   
1 26998U 01055B   26189.41747224  .00000807  00000+0  76786-4 0  9994
2 26998  74.0660 192.2699 0002075 307.6929  52.4067 14.95335015333994
CORIOLIS                
1 27640U 03001A   26189.47759225  .00000073  00000+0  54924-4 0  9997
2 27640  98.7130 196.0374 0014659 147.5954 212.6126 14.19950497217244
SORCE                   
1 27651U 03004A   26189.25839775  .00001826  00000+0  14093-3 0  9996
2 27651  39.9897 141.4467 0018076 207.3902 152.5941 15.03817614275074
MOST                    
1 27843U 03031D   26189.47108335  .00000045  00000+0  40794-4 0  9994
2 27843  98.7049 196.9000 0009693 184.3561 175.7533 14.21326808193732
SCISAT 1                
1 27858U 03036A   26189.22719412  .00000530  00000+0  72362-4 0  9997
2 27858  73.9301 129.5393 0007723 198.8928 161.1963 14.81473182234567
SWIFT                   
1 28485U 04047A   26186.87627307  .00061981  00000+0  47565-3 0  9999
2 28485  20.5532  40.5436 0000897 245.9890 114.0463 15.70286946189802
HINODE (SOLAR-B)        
1 29479U 06041A   26189.30606764  .00000509  00000+0  95859-4 0  9993
2 29479  98.0547 205.1472 0016512 217.1196 142.8868 14.68652146 57977
SHIJIAN-6 02A (SJ-6 02A)
1 29505U 06046A   26189.59409105  .00006597  00000+0  33531-3 0  9990
2 29505  97.6349 230.8233 0004523  77.8831 282.2909 15.17200384 75511
SHIJIAN-6 02B (SJ-6 02B)
1 29506U 06046B   26189.60636013  .00000947  00000+0  77956-4 0  9996
2 29506  97.7151 218.5328 0014256 358.1418   1.9751 15.01430180 73951
FGRST (GLAST)           
1 33053U 08029A   26189.31193161  .00002465  00000+0  85240-4 0  9993
2 33053  25.5826  57.7890 0007825 214.0319 145.9717 15.24050141999062
SDO                     
1 36395U 10005A   26189.29621407 -.00000082  00000+0  00000+0 0  9998
2 36395  34.6924  86.0231 0001701  55.0520 149.4946  1.00269565 60278
CRYOSAT 2               
1 36508U 10013A   26189.58459886  .00000135  00000+0  32896-4 0  9996
2 36508  92.0359 282.5034 0002299  97.7969 262.3500 14.51896789861185
X-SAT                   
1 37389U 11015C   26189.56791025  .00000000  00000+0  17548-4 0  9997
2 37389  98.3524 165.5738 0012791 282.6308  77.3442 14.25212272790727
GCOM-W1 (SHIZUKU)       
1 38337U 12025A   26189.33964737  .00000331  00000+0  83419-4 0  9997
2 38337  98.2024 129.5755 0001394  65.7116  98.3599 14.57144331752110
NUSTAR                  
1 38358U 12031A   26189.58336806  .00017886  00000+0  10423-2 0  9990
2 38358   6.0262 233.6282 0006702  67.2408 284.1850 15.08998930  1307
NEOSSAT                 
1 39089U 13009D   26189.25480259  .00000117  00000+0  55208-4 0  9995
2 39089  98.4187   8.7873 0011006 177.4025 182.7220 14.35833847699760
BRITE-AUSTRIA           
1 39091U 13009F   26189.45189560  .00000122  00000+0  56086-4 0  9992
2 39091  98.4005   8.3622 0010347 170.0006 190.1389 14.36550587700103
IRIS                    
1 39197U 13033A   26189.51171484  .00000796  00000+0  97230-4 0  9992
2 39197  97.9322  28.7216 0023022 248.1255 111.7512 14.85927927703546
HISAKI (SPRINT-A)       
1 39253U 13049A   26189.48678398  .00000093  00000+0  35828-4 0  9999
2 39253  29.7196 111.7184 0136922 189.5384 170.2575 13.55546331634312
CASSIOPE                
1 39265U 13055A   26189.60085326  .00031002 -49159-6  33337-3 0  9998
2 39265  80.9138  40.6768 0284478 350.2570   9.3208 15.27090594670931
STSAT-3                 
1 39422U 13066G   26189.55266597  .00001132  00000+0  88864-4 0  9991
2 39422  97.6201 159.0970 0009039 333.2402  26.8356 15.02866040687414
SWARM B                 
1 39451U 13067A   26189.54064640  .00002580  00000+0  91263-4 0  9993
2 39451  87.7453 335.8294 0002563  80.4101 279.7438 15.28688763686501
